PERSEUS-M1              
1 40039U 14033AF  26176.80033404  .00001981  00000+0  18355-3 0  9994
2 40039  97.9648 121.0735 0009802 268.9220  91.0877 14.95660102651927
POLYITAN-1              
1 40042U 14033AJ  26176.60092590  .00023755  00000+0  73319-3 0  9991
2 40042  98.0941 203.6586 0008872 118.2869 241.9268 15.33535945654889
TIGRISAT                
1 40043U 14033AK  26177.14387016  .00001823  00000+0  21435-3 0  9996
2 40043  97.7840 326.9507 0050166  46.5050 314.0319 14.85192644646953
AEROCUBE 6A             
1 40045U 14033AM  26177.17386311  .00004931  00000+0  41456-3 0  9996
2 40045  97.7231 344.0286 0038223 346.8198  13.2022 14.98179733647962
AEROCUBE 6B             
1 40046U 14033AN  26176.70037602  .00005469  00000+0  44228-3 0  9998
2 40046  97.7232 343.3693 0037784 339.5695  20.4014 14.99639437648033
CANX-4                  
1 40055U 14034C   26176.59567201  .00000890  00000+0  12133-3 0  9992
2 40055  98.3112  52.2170 0012516 350.4550   9.6421 14.81278652645779
CANX-5                  
1 40056U 14034D   26177.13439997  .00000864  00000+0  11795-3 0  9998
2 40056  98.3114  52.8196 0012474 348.9380  11.1555 14.81296747636661
UKUBE-1                 
1 40074U 14037F   26176.96062269  .00009994  00000+0  55936-3 0  9993
2 40074  98.4236 181.1546 0003001 118.9747 241.1783 15.13680584649888
BRITE-PL2 (HEWELIUSZ)   
1 40119U 14049B   26176.87565770  .00001824  00000+0  17359-3 0  9992
2 40119  97.9105 288.9428 0015409  81.9829 278.3139 14.94625228642744
AEROCUBE 5C             
1 40965U 15058B   26176.48529595  .00001921  00000+0  17759-3 0  9996
2 40965  64.7654 236.7748 0131151  60.0454 301.3604 14.91484743366890
AEROCUBE 7              
1 40966U 15058C   26177.19335722  .00003416  00000+0  27770-3 0  9998
2 40966  64.7608 216.6055 0120924  58.1231 303.1583 14.95773516367301
FOX-1A (AO-85)          
1 40967U 15058D   26176.60265426  .00002302  00000+0  21247-3 0  9993
2 40967  64.7749 252.8304 0130949  53.3196 307.9866 14.91002790114820
SINOD-D 1               
1 40968U 15058E   26176.56856403  .00003279  00000+0  26676-3 0  9995
2 40968  64.7740 232.6646 0119610  49.7671 311.3833 14.95949961117916
SNAP-3 ALICE            
1 40970U 15058G   26177.14248505  .00151990  00000+0  16557-2 0  9991
2 40970  64.7505  72.9304 0025029   6.4437 353.7027 15.62300888118284
LMRST-SAT               
1 40971U 15058H   26176.62719899  .00001826  00000+0  17290-3 0  9991
2 40971  64.7744 249.1084 0132548  55.3391 306.0130 14.90620494114819
SNAP-3 EDDIE            
1 40972U 15058J   26176.99738703  .00146581  00000+0  15257-2 0  9995
2 40972  64.7418  64.0911 0025479   9.7390 350.4246 15.63466255120404
PROPCUBE 3              
1 40973U 15058K   26176.57512552  .00002899  00000+0  24535-3 0  9995
2 40973  64.7673 226.3279 0124487  56.5972 304.6977 14.94295780116057
BISONSAT                
1 40974U 15058L   26177.00306368  .00016684  00000+0  79538-3 0  9991
2 40974  64.7572 145.1370 0080116  43.6954 317.0475 15.16401804116954
SNAP-3 JIMI             
1 40975U 15058M   26177.17579766  .00006229  00000+0  42691-3 0  9998
2 40975  64.7632 191.3309 0106626  51.7689 309.2967 15.02375969115570
PROPCUBE 1 (FLORA)      
1 40976U 15058N   26176.65702872  .00002194  00000+0  21250-3 0  9992
2 40976  64.7749 268.9851 0131207  57.6197 303.7532 14.89254859117527
SINOD-D 3               
1 40977U 15058P   26176.80895984  .00003013  00000+0  25880-3 0  9991
2 40977  64.7720 248.8953 0119753  54.7010 306.5233 14.94060515116046
HORYU-4                 
1 41340U 16012D   26176.91821065  .01006703  53081-3  12774-2 0  9996
2 41340  30.9835  14.4936 0008742 324.9122  35.0966 16.06293383572210
RAVAN                   
1 41849U 16067B   26177.18104257  .00059842  00000+0  87145-3 0  9992
2 41849  97.9879  67.7971 0002850   0.0202   0.1050 15.55537326529096
CELTEE 1                
1 41850U 16067C   26176.56917890  .00006317  00000+0  29894-3 0  9996
2 41850  98.0670  43.7080 0001423 129.0857 231.0503 15.19757723527155
OPTICUBE 04             
1 41851U 16067D   26177.09335778  .00002161  00000+0  13814-3 0  9993
2 41851  98.0695  29.8416 0017045  87.9925 272.3254 15.09693853526518
AEROCUBE 8D             
1 41852U 16067E   26177.14809933  .00008298  00000+0  34051-3 0  9992
2 41852  98.0682  48.0013 0005022 102.1384 258.0415 15.24514880527433
AEROCUBE 8C             
1 41853U 16067F   26177.17161568  .00009065  00000+0  36880-3 0  9996
2 41853  98.0549  45.2426 0006091  44.4349 315.7375 15.24766784527437
CORVUS BC2              
1 42846U 17042X   26177.16274150  .00003136  00000+0  21672-3 0  9990
2 42846  97.4071 338.1642 0014724  82.8762 277.4139 15.06350199488419
CORVUS BC1              
1 42847U 17042Y   26176.89067537  .00002866  00000+0  19764-3 0  9997
2 42847  97.4097 338.7225 0013204  62.8165 297.4407 15.06511248488401
MAKERSAT 0              
1 43016U 17073D   26175.42911744  .00015733  00000+0  42578-3 0  9992
2 43016  97.4622  58.0052 0104847 246.7219 112.2959 15.32301022467578
