OBJECT_NAME,OBJECT_ID,EPOCH,MEAN_MOTION,ECCENTRICITY,INCLINATION,RA_OF_ASC_NODE,ARG_OF_PERICENTER,MEAN_ANOMALY,EPHEMERIS_TYPE,CLASSIFICATION_TYPE,NORAD_CAT_ID,ELEMENT_SET_NO,REV_AT_EPOCH,BSTAR,MEAN_MOTION_DOT,MEAN_MOTION_DDOT
PERSEUS-M1,2014-033AF,2026-06-25T19:12:28.861056,14.95660102,.0009802,97.9648,121.0735,268.9220,91.0877,0,U,40039,999,65192,.18355E-3,.1981E-4,0
POLYITAN-1,2014-033AJ,2026-06-25T14:25:19.997760,15.33535945,.0008872,98.0941,203.6586,118.2869,241.9268,0,U,40042,999,65488,.73319E-3,.23755E-3,0
TIGRISAT,2014-033AK,2026-06-26T03:27:10.381824,14.85192644,.0050166,97.7840,326.9507,46.5050,314.0319,0,U,40043,999,64695,.21435E-3,.1823E-4,0
AEROCUBE 6A,2014-033AM,2026-06-26T04:10:21.772704,14.98179733,.0038223,97.7231,344.0286,346.8198,13.2022,0,U,40045,999,64796,.41456E-3,.4931E-4,0
AEROCUBE 6B,2014-033AN,2026-06-25T16:48:32.488128,14.99639437,.0037784,97.7232,343.3693,339.5695,20.4014,0,U,40046,999,64803,.44228E-3,.5469E-4,0
CANX-4,2014-034C,2026-06-25T14:17:46.061664,14.81278652,.0012516,98.3112,52.2170,350.4550,9.6421,0,U,40055,999,64577,.12133E-3,.89E-5,0
CANX-5,2014-034D,2026-06-26T03:13:32.157408,14.81296747,.0012474,98.3114,52.8196,348.9380,11.1555,0,U,40056,999,63666,.11795E-3,.864E-5,0
UKUBE-1,2014-037F,2026-06-25T23:03:17.800416,15.13680584,.0003001,98.4236,181.1546,118.9747,241.1783,0,U,40074,999,64988,.55936E-3,.9994E-4,0
BRITE-PL2 (HEWELIUSZ),2014-049B,2026-06-25T21:00:56.825280,14.94625228,.0015409,97.9105,288.9428,81.9829,278.3139,0,U,40119,999,64274,.17359E-3,.1824E-4,0
AEROCUBE 5C,2015-058B,2026-06-25T11:38:49.570080,14.91484743,.0131151,64.7654,236.7748,60.0454,301.3604,0,U,40965,999,36689,.17759E-3,.1921E-4,0
AEROCUBE 7,2015-058C,2026-06-26T04:38:26.063808,14.95773516,.0120924,64.7608,216.6055,58.1231,303.1583,0,U,40966,999,36730,.2777E-3,.3416E-4,0
FOX-1A (AO-85),2015-058D,2026-06-25T14:27:49.328064,14.91002790,.0130949,64.7749,252.8304,53.3196,307.9866,0,U,40967,999,11482,.21247E-3,.2302E-4,0
SINOD-D 1,2015-058E,2026-06-25T13:38:43.932192,14.95949961,.011961,64.7740,232.6646,49.7671,311.3833,0,U,40968,999,11791,.26676E-3,.3279E-4,0
SNAP-3 ALICE,2015-058G,2026-06-26T03:25:10.708320,15.62300888,.0025029,64.7505,72.9304,6.4437,353.7027,0,U,40970,999,11828,.16557E-2,.15199E-2,0
LMRST-SAT,2015-058H,2026-06-25T15:03:09.992736,14.90620494,.0132548,64.7744,249.1084,55.3391,306.0130,0,U,40971,999,11481,.1729E-3,.1826E-4,0
SNAP-3 EDDIE,2015-058J,2026-06-25T23:56:14.239392,15.63466255,.0025479,64.7418,64.0911,9.7390,350.4246,0,U,40972,999,12040,.15257E-2,.146581E-2,0
PROPCUBE 3,2015-058K,2026-06-25T13:48:10.844928,14.94295780,.0124487,64.7673,226.3279,56.5972,304.6977,0,U,40973,999,11605,.24535E-3,.2899E-4,0
BISONSAT,2015-058L,2026-06-26T00:04:24.701952,15.16401804,.0080116,64.7572,145.1370,43.6954,317.0475,0,U,40974,999,11695,.79538E-3,.16684E-3,0
SNAP-3 JIMI,2015-058M,2026-06-26T04:13:08.917824,15.02375969,.0106626,64.7632,191.3309,51.7689,309.2967,0,U,40975,999,11557,.42691E-3,.6229E-4,0
PROPCUBE 1 (FLORA),2015-058N,2026-06-25T15:46:07.281408,14.89254859,.0131207,64.7749,268.9851,57.6197,303.7532,0,U,40976,999,11752,.2125E-3,.2194E-4,0
SINOD-D 3,2015-058P,2026-06-25T19:24:54.130176,14.94060515,.0119753,64.7720,248.8953,54.7010,306.5233,0,U,40977,999,11604,.2588E-3,.3013E-4,0
HORYU-4,2016-012D,2026-06-25T22:02:13.400160,16.06293383,.0008742,30.9835,14.4936,324.9122,35.0966,0,U,41340,999,57221,.12774E-2,.1006703E-1,.53081E-3
RAVAN,2016-067B,2026-06-26T04:20:42.078048,15.55537326,.000285,97.9879,67.7971,0.0202,0.1050,0,U,41849,999,52909,.87145E-3,.59842E-3,0
CELTEE 1,2016-067C,2026-06-25T13:39:37.056960,15.19757723,.0001423,98.0670,43.7080,129.0857,231.0503,0,U,41850,999,52715,.29894E-3,.6317E-4,0
OPTICUBE 04,2016-067D,2026-06-26T02:14:26.112192,15.09693853,.0017045,98.0695,29.8416,87.9925,272.3254,0,U,41851,999,52651,.13814E-3,.2161E-4,0
AEROCUBE 8D,2016-067E,2026-06-26T03:33:15.782112,15.24514880,.0005022,98.0682,48.0013,102.1384,258.0415,0,U,41852,999,52743,.34051E-3,.8298E-4,0
AEROCUBE 8C,2016-067F,2026-06-26T04:07:07.594752,15.24766784,.0006091,98.0549,45.2426,44.4349,315.7375,0,U,41853,999,52743,.3688E-3,.9065E-4,0
CORVUS BC2,2017-042X,2026-06-26T03:54:20.865600,15.06350199,.0014724,97.4071,338.1642,82.8762,277.4139,0,U,42846,999,48841,.21672E-3,.3136E-4,0
CORVUS BC1,2017-042Y,2026-06-25T21:22:34.351968,15.06511248,.0013204,97.4097,338.7225,62.8165,297.4407,0,U,42847,999,48840,.19764E-3,.2866E-4,0
MAKERSAT 0,2017-073D,2026-06-24T10:17:55.746816,15.32301022,.01048473,97.4622,58.0052,246.7219,112.2959,0,U,43016,999,46757,.42577588E-3,.15733E-3,0
